CCSDS_OMM_VERS = 2.0
CREATION_DATE  = 
ORIGINATOR     = 

OBJECT_NAME    = CYGNUS NG-23
OBJECT_ID      = 2025-208A
CENTER_NAME    = EARTH
REF_FRAME      = TEME
TIME_SYSTEM    = UTC
MEAN_ELEMENT_THEORY = SGP/SGP4

EPOCH          = 2025-12-21T04:22:59.119680
MEAN_MOTION    = 15.49696285
ECCENTRICITY   = .00031756
INCLINATION    = 51.6324
RA_OF_ASC_NODE = 100.6685
ARG_OF_PERICENTER = 279.9061
MEAN_ANOMALY   = 80.1569

EPHEMERIS_TYPE = 0
CLASSIFICATION_TYPE = U
NORAD_CAT_ID   = 65616
ELEMENT_SET_NO = 999
REV_AT_EPOCH   = 22
BSTAR          = .15703459E-3
MEAN_MOTION_DOT = .8423E-4
MEAN_MOTION_DDOT = 0

CCSDS_OMM_VERS = 2.0
CREATION_DATE  = 
ORIGINATOR     = 

OBJECT_NAME    = DRAGONFLY
OBJECT_ID      = 1998-067XH
CENTER_NAME    = EARTH
REF_FRAME      = TEME
TIME_SYSTEM    = UTC
MEAN_ELEMENT_THEORY = SGP/SGP4

EPOCH          = 2025-12-20T23:53:54.949632
MEAN_MOTION    = 15.74592316
ECCENTRICITY   = .0007599
INCLINATION    = 51.6248
RA_OF_ASC_NODE = 93.4014
ARG_OF_PERICENTER = 329.0075
MEAN_ANOMALY   = 31.0474

EPHEMERIS_TYPE = 0
CLASSIFICATION_TYPE = U
NORAD_CAT_ID   = 65729
ELEMENT_SET_NO = 999
REV_AT_EPOCH   = 1446
BSTAR          = .97794606E-3
MEAN_MOTION_DOT = .14816E-2
MEAN_MOTION_DDOT = 0

CCSDS_OMM_VERS = 2.0
CREATION_DATE  = 
ORIGINATOR     = 

OBJECT_NAME    = 1998-067XK
OBJECT_ID      = 1998-067XK
CENTER_NAME    = EARTH
REF_FRAME      = TEME
TIME_SYSTEM    = UTC
MEAN_ELEMENT_THEORY = SGP/SGP4

EPOCH          = 2025-12-20T00:10:02.026560
MEAN_MOTION    = 15.67078773
ECCENTRICITY   = .00047639
INCLINATION    = 51.6294
RA_OF_ASC_NODE = 100.3244
ARG_OF_PERICENTER = 292.7833
MEAN_ANOMALY   = 67.2659

EPHEMERIS_TYPE = 0
CLASSIFICATION_TYPE = U
NORAD_CAT_ID   = 65731
ELEMENT_SET_NO = 999
REV_AT_EPOCH   = 1428
BSTAR          = .70175188E-3
MEAN_MOTION_DOT = .76617E-3
MEAN_MOTION_DDOT = 0

CCSDS_OMM_VERS = 2.0
CREATION_DATE  = 
ORIGINATOR     = 

OBJECT_NAME    = RSP-03
OBJECT_ID      = 1998-067XL
CENTER_NAME    = EARTH
REF_FRAME      = TEME
TIME_SYSTEM    = UTC
MEAN_ELEMENT_THEORY = SGP/SGP4

EPOCH          = 2025-12-19T10:11:34.022112
MEAN_MOTION    = 15.70283101
ECCENTRICITY   = .0005658
INCLINATION    = 51.6265
RA_OF_ASC_NODE = 102.4221
ARG_OF_PERICENTER = 294.5755
MEAN_ANOMALY   = 65.4652

EPHEMERIS_TYPE = 0
CLASSIFICATION_TYPE = U
NORAD_CAT_ID   = 65732
ELEMENT_SET_NO = 999
REV_AT_EPOCH   = 1421
BSTAR          = .84699E-3
MEAN_MOTION_DOT = .106087E-2
MEAN_MOTION_DDOT = 0

CCSDS_OMM_VERS = 2.0
CREATION_DATE  = 
ORIGINATOR     = 

OBJECT_NAME    = GHS-01
OBJECT_ID      = 1998-067XM
CENTER_NAME    = EARTH
REF_FRAME      = TEME
TIME_SYSTEM    = UTC
MEAN_ELEMENT_THEORY = SGP/SGP4

EPOCH          = 2025-12-20T20:48:16.616736
MEAN_MOTION    = 15.78264092
ECCENTRICITY   = .0008588
INCLINATION    = 51.6278
RA_OF_ASC_NODE = 93.2966
ARG_OF_PERICENTER = 331.6414
MEAN_ANOMALY   = 28.4119

EPHEMERIS_TYPE = 0
CLASSIFICATION_TYPE = U
NORAD_CAT_ID   = 65733
ELEMENT_SET_NO = 999
REV_AT_EPOCH   = 1446
BSTAR          = .10694E-2
MEAN_MOTION_DOT = .191722E-2
MEAN_MOTION_DDOT = 0

CCSDS_OMM_VERS = 2.0
CREATION_DATE  = 
ORIGINATOR     = 

OBJECT_NAME    = YOTSUBA-KULOVER
OBJECT_ID      = 1998-067XN
CENTER_NAME    = EARTH
REF_FRAME      = TEME
TIME_SYSTEM    = UTC
MEAN_ELEMENT_THEORY = SGP/SGP4

EPOCH          = 2025-12-20T17:17:02.919552
MEAN_MOTION    = 15.60468016
ECCENTRICITY   = .00018346
INCLINATION    = 51.6291
RA_OF_ASC_NODE = 99.8352
ARG_OF_PERICENTER = 329.1843
MEAN_ANOMALY   = 30.9043

EPHEMERIS_TYPE = 0
CLASSIFICATION_TYPE = U
NORAD_CAT_ID   = 65941
ELEMENT_SET_NO = 999
REV_AT_EPOCH   = 1110
BSTAR          = .60496039E-3
MEAN_MOTION_DOT = .50568E-3
MEAN_MOTION_DDOT = 0

CCSDS_OMM_VERS = 2.0
CREATION_DATE  = 
ORIGINATOR     = 

OBJECT_NAME    = BOTAN
OBJECT_ID      = 1998-067XP
CENTER_NAME    = EARTH
REF_FRAME      = TEME
TIME_SYSTEM    = UTC
MEAN_ELEMENT_THEORY = SGP/SGP4

EPOCH          = 2025-12-20T13:53:44.237472
MEAN_MOTION    = 15.64441775
ECCENTRICITY   = .00029505
INCLINATION    = 51.6283
RA_OF_ASC_NODE = 99.6415
ARG_OF_PERICENTER = 304.2475
MEAN_ANOMALY   = 55.8240

EPHEMERIS_TYPE = 0
CLASSIFICATION_TYPE = U
NORAD_CAT_ID   = 65942
ELEMENT_SET_NO = 999
REV_AT_EPOCH   = 1109
BSTAR          = .83574073E-3
MEAN_MOTION_DOT = .82185E-3
MEAN_MOTION_DDOT = 0

CCSDS_OMM_VERS = 2.0
CREATION_DATE  = 
ORIGINATOR     = 

OBJECT_NAME    = E-KAGAKU-1
OBJECT_ID      = 1998-067XQ
CENTER_NAME    = EARTH
REF_FRAME      = TEME
TIME_SYSTEM    = UTC
MEAN_ELEMENT_THEORY = SGP/SGP4

EPOCH          = 2025-12-18T08:24:49.666176
MEAN_MOTION    = 15.60193795
ECCENTRICITY   = .00013451
INCLINATION    = 51.6302
RA_OF_ASC_NODE = 111.7666
ARG_OF_PERICENTER = 249.8249
MEAN_ANOMALY   = 110.2600

EPHEMERIS_TYPE = 0
CLASSIFICATION_TYPE = U
NORAD_CAT_ID   = 65943
ELEMENT_SET_NO = 999
REV_AT_EPOCH   = 1073
BSTAR          = .84619625E-3
MEAN_MOTION_DOT = .70368E-3
MEAN_MOTION_DDOT = 0

CCSDS_OMM_VERS = 2.0
CREATION_DATE  = 
ORIGINATOR     = 

OBJECT_NAME    = HRC MONOBLOCK CAMERA
OBJECT_ID      = 1998-067XR
CENTER_NAME    = EARTH
REF_FRAME      = TEME
TIME_SYSTEM    = UTC
MEAN_ELEMENT_THEORY = SGP/SGP4

EPOCH          = 2025-12-21T00:12:43.041600
MEAN_MOTION    = 15.54684783
ECCENTRICITY   = .00024239
INCLINATION    = 51.6308
RA_OF_ASC_NODE = 100.2596
ARG_OF_PERICENTER = 223.3517
MEAN_ANOMALY   = 136.7283

EPHEMERIS_TYPE = 0
CLASSIFICATION_TYPE = U
NORAD_CAT_ID   = 66052
ELEMENT_SET_NO = 999
REV_AT_EPOCH   = 1012
BSTAR          = .39906509E-3
MEAN_MOTION_DOT = .26569E-3
MEAN_MOTION_DDOT = 0

CCSDS_OMM_VERS = 2.0
CREATION_DATE  = 
ORIGINATOR     = 

OBJECT_NAME    = HTV-X1
OBJECT_ID      = 2025-241A
CENTER_NAME    = EARTH
REF_FRAME      = TEME
TIME_SYSTEM    = UTC
MEAN_ELEMENT_THEORY = SGP/SGP4

EPOCH          = 2025-12-21T04:22:59.119680
MEAN_MOTION    = 15.49696285
ECCENTRICITY   = .00031756
INCLINATION    = 51.6324
RA_OF_ASC_NODE = 100.6685
ARG_OF_PERICENTER = 279.9061
MEAN_ANOMALY   = 80.1569

EPHEMERIS_TYPE = 0
CLASSIFICATION_TYPE = U
NORAD_CAT_ID   = 66174
ELEMENT_SET_NO = 999
REV_AT_EPOCH   = 51
BSTAR          = .15703459E-3
MEAN_MOTION_DOT = .8423E-4
MEAN_MOTION_DDOT = 0

CCSDS_OMM_VERS = 2.0
CREATION_DATE  = 
ORIGINATOR     = 

OBJECT_NAME    = SZ-21 MODULE
OBJECT_ID      = 2025-246C
CENTER_NAME    = EARTH
REF_FRAME      = TEME
TIME_SYSTEM    = UTC
MEAN_ELEMENT_THEORY = SGP/SGP4

EPOCH          = 2025-12-21T02:28:16.865472
MEAN_MOTION    = 15.62895195
ECCENTRICITY   = .00053926
INCLINATION    = 41.4772
RA_OF_ASC_NODE = 325.0132
ARG_OF_PERICENTER = 304.7401
MEAN_ANOMALY   = 55.2931

EPHEMERIS_TYPE = 0
CLASSIFICATION_TYPE = U
NORAD_CAT_ID   = 66515
ELEMENT_SET_NO = 999
REV_AT_EPOCH   = 575
BSTAR          = .23274036E-3
MEAN_MOTION_DOT = .21377E-3
MEAN_MOTION_DDOT = 0

CCSDS_OMM_VERS = 2.0
CREATION_DATE  = 
ORIGINATOR     = 

OBJECT_NAME    = SHENZHOU-22
OBJECT_ID      = 2025-272A
CENTER_NAME    = EARTH
REF_FRAME      = TEME
TIME_SYSTEM    = UTC
MEAN_ELEMENT_THEORY = SGP/SGP4

EPOCH          = 2025-12-21T05:35:06.684000
MEAN_MOTION    = 15.59524435
ECCENTRICITY   = .00077499
INCLINATION    = 41.4687
RA_OF_ASC_NODE = 325.1329
ARG_OF_PERICENTER = 105.4926
MEAN_ANOMALY   = 254.6769

EPHEMERIS_TYPE = 0
CLASSIFICATION_TYPE = U
NORAD_CAT_ID   = 66645
ELEMENT_SET_NO = 999
REV_AT_EPOCH   = 26519
BSTAR          = .19872404E-3
MEAN_MOTION_DOT = .15946E-3
MEAN_MOTION_DDOT = 0

